STARLINK-36343          
1 67816U 26032V   26059.01705829  .00187794  00000+0  95794-3 0  9997
2 67816  97.2822 245.0678 0001766  83.3400 276.8069 15.80867257  3268
STARLINK-36756          
1 67817U 26032W   26059.13987940  .00281646  00000+0  14194-2 0  9992
2 67817  97.2819 245.2069 0001608  72.2936 287.8507 15.80889245  3278
STARLINK-36346          
1 67818U 26032X   26059.13819655  .00127005  00000+0  65120-3 0  9994
2 67818  97.2820 245.2096 0001153  94.9689 265.1710 15.80916364  3281
STARLINK-36788          
1 67819U 26032Y   26059.01557828  .00252273  00000+0  12750-2 0  9999
2 67819  97.2827 245.0698 0002238  98.0968 262.0554 15.80901842  3260
STARLINK-36353          
1 67820U 26032Z   26059.07767946  .00169261  00000+0  86520-3 0  9992
2 67820  97.2823 245.1380 0001717  71.1570 288.9884 15.80870441  3273
STARLINK-36644          
1 67821U 26033A   26059.09806779  .00337658  00000+0  15364-2 0  9998
2 67821  42.9978 330.3075 0002483 274.9111  85.1478 15.82126042  3106
STARLINK-36643          
1 67822U 26033B   26059.16045537  .00279957  00000+0  12844-2 0  9991
2 67822  42.9984 329.9155 0001935 300.1941  59.8739 15.82100581  3110
STARLINK-36646          
1 67823U 26033C   26058.78089119  .01454075  00000+0  60010-2 0  9998
2 67823  42.9980 332.2274 0002463 225.6051 134.4619 15.82403609  3053
STARLINK-36647          
1 67824U 26033D   26059.09582387  .00226209  00000+0  10461-2 0  9999
2 67824  42.9981 330.2888 0001547 272.9999  87.0695 15.82075326  3106
STARLINK-36648          
1 67825U 26033E   26059.09506463  .00181108  00000+0  84112-3 0  9994
2 67825  42.9978 330.2825 0003723 253.6575 106.3887 15.82102489  3107
STARLINK-35865          
1 67826U 26033F   26059.09432453  .00368036  00000+0  16683-2 0  9996
2 67826  42.9979 330.2769 0001953 275.7459  84.3190 15.82128458  3101
STARLINK-36289          
1 67827U 26033G   26059.09357317  .00223869  00000+0  10346-2 0  9996
2 67827  42.9971 330.2695 0002045 264.3143  95.7495 15.82094364  3101
