CCSDS_OMM_VERS = 2.0
CREATION_DATE  = 
ORIGINATOR     = 

OBJECT_NAME    = STARLINK-36343
OBJECT_ID      = 2026-032V
CENTER_NAME    = EARTH
REF_FRAME      = TEME
TIME_SYSTEM    = UTC
MEAN_ELEMENT_THEORY = SGP/SGP4

EPOCH          = 2026-02-28T00:24:33.836256
MEAN_MOTION    = 15.80867257
ECCENTRICITY   = .0001766
INCLINATION    = 97.2822
RA_OF_ASC_NODE = 245.0678
ARG_OF_PERICENTER = 83.3400
MEAN_ANOMALY   = 276.8069

EPHEMERIS_TYPE = 0
CLASSIFICATION_TYPE = U
NORAD_CAT_ID   = 67816
ELEMENT_SET_NO = 999
REV_AT_EPOCH   = 326
BSTAR          = .95794E-3
MEAN_MOTION_DOT = .187794E-2
MEAN_MOTION_DDOT = 0

CCSDS_OMM_VERS = 2.0
CREATION_DATE  = 
ORIGINATOR     = 

OBJECT_NAME    = STARLINK-36756
OBJECT_ID      = 2026-032W
CENTER_NAME    = EARTH
REF_FRAME      = TEME
TIME_SYSTEM    = UTC
MEAN_ELEMENT_THEORY = SGP/SGP4

EPOCH          = 2026-02-28T03:21:25.580160
MEAN_MOTION    = 15.80889245
ECCENTRICITY   = .0001608
INCLINATION    = 97.2819
RA_OF_ASC_NODE = 245.2069
ARG_OF_PERICENTER = 72.2936
MEAN_ANOMALY   = 287.8507

EPHEMERIS_TYPE = 0
CLASSIFICATION_TYPE = U
NORAD_CAT_ID   = 67817
ELEMENT_SET_NO = 999
REV_AT_EPOCH   = 327
BSTAR          = .14194E-2
MEAN_MOTION_DOT = .281646E-2
MEAN_MOTION_DDOT = 0

CCSDS_OMM_VERS = 2.0
CREATION_DATE  = 
ORIGINATOR     = 

OBJECT_NAME    = STARLINK-36346
OBJECT_ID      = 2026-032X
CENTER_NAME    = EARTH
REF_FRAME      = TEME
TIME_SYSTEM    = UTC
MEAN_ELEMENT_THEORY = SGP/SGP4

EPOCH          = 2026-02-28T03:19:00.181920
MEAN_MOTION    = 15.80916364
ECCENTRICITY   = .0001153
INCLINATION    = 97.2820
RA_OF_ASC_NODE = 245.2096
ARG_OF_PERICENTER = 94.9689
MEAN_ANOMALY   = 265.1710

EPHEMERIS_TYPE = 0
CLASSIFICATION_TYPE = U
NORAD_CAT_ID   = 67818
ELEMENT_SET_NO = 999
REV_AT_EPOCH   = 328
BSTAR          = .6512E-3
MEAN_MOTION_DOT = .127005E-2
MEAN_MOTION_DDOT = 0

CCSDS_OMM_VERS = 2.0
CREATION_DATE  = 
ORIGINATOR     = 

OBJECT_NAME    = STARLINK-36788
OBJECT_ID      = 2026-032Y
CENTER_NAME    = EARTH
REF_FRAME      = TEME
TIME_SYSTEM    = UTC
MEAN_ELEMENT_THEORY = SGP/SGP4

EPOCH          = 2026-02-28T00:22:25.963392
MEAN_MOTION    = 15.80901842
ECCENTRICITY   = .0002238
INCLINATION    = 97.2827
RA_OF_ASC_NODE = 245.0698
ARG_OF_PERICENTER = 98.0968
MEAN_ANOMALY   = 262.0554

EPHEMERIS_TYPE = 0
CLASSIFICATION_TYPE = U
NORAD_CAT_ID   = 67819
ELEMENT_SET_NO = 999
REV_AT_EPOCH   = 326
BSTAR          = .1275E-2
MEAN_MOTION_DOT = .252273E-2
MEAN_MOTION_DDOT = 0

CCSDS_OMM_VERS = 2.0
CREATION_DATE  = 
ORIGINATOR     = 

OBJECT_NAME    = STARLINK-36353
OBJECT_ID      = 2026-032Z
CENTER_NAME    = EARTH
REF_FRAME      = TEME
TIME_SYSTEM    = UTC
MEAN_ELEMENT_THEORY = SGP/SGP4

EPOCH          = 2026-02-28T01:51:51.505344
MEAN_MOTION    = 15.80870441
ECCENTRICITY   = .0001717
INCLINATION    = 97.2823
RA_OF_ASC_NODE = 245.1380
ARG_OF_PERICENTER = 71.1570
MEAN_ANOMALY   = 288.9884

EPHEMERIS_TYPE = 0
CLASSIFICATION_TYPE = U
NORAD_CAT_ID   = 67820
ELEMENT_SET_NO = 999
REV_AT_EPOCH   = 327
BSTAR          = .8652E-3
MEAN_MOTION_DOT = .169261E-2
MEAN_MOTION_DDOT = 0

CCSDS_OMM_VERS = 2.0
CREATION_DATE  = 
ORIGINATOR     = 

OBJECT_NAME    = STARLINK-36644
OBJECT_ID      = 2026-033A
CENTER_NAME    = EARTH
REF_FRAME      = TEME
TIME_SYSTEM    = UTC
MEAN_ELEMENT_THEORY = SGP/SGP4

EPOCH          = 2026-02-28T02:21:13.057056
MEAN_MOTION    = 15.82126042
ECCENTRICITY   = .0002483
INCLINATION    = 42.9978
RA_OF_ASC_NODE = 330.3075
ARG_OF_PERICENTER = 274.9111
MEAN_ANOMALY   = 85.1478

EPHEMERIS_TYPE = 0
CLASSIFICATION_TYPE = U
NORAD_CAT_ID   = 67821
ELEMENT_SET_NO = 999
REV_AT_EPOCH   = 310
BSTAR          = .15364E-2
MEAN_MOTION_DOT = .337658E-2
MEAN_MOTION_DDOT = 0

CCSDS_OMM_VERS = 2.0
CREATION_DATE  = 
ORIGINATOR     = 

OBJECT_NAME    = STARLINK-36643
OBJECT_ID      = 2026-033B
CENTER_NAME    = EARTH
REF_FRAME      = TEME
TIME_SYSTEM    = UTC
MEAN_ELEMENT_THEORY = SGP/SGP4

EPOCH          = 2026-02-28T03:51:03.343968
MEAN_MOTION    = 15.82100581
ECCENTRICITY   = .0001935
INCLINATION    = 42.9984
RA_OF_ASC_NODE = 329.9155
ARG_OF_PERICENTER = 300.1941
MEAN_ANOMALY   = 59.8739

EPHEMERIS_TYPE = 0
CLASSIFICATION_TYPE = U
NORAD_CAT_ID   = 67822
ELEMENT_SET_NO = 999
REV_AT_EPOCH   = 311
BSTAR          = .12844E-2
MEAN_MOTION_DOT = .279957E-2
MEAN_MOTION_DDOT = 0

CCSDS_OMM_VERS = 2.0
CREATION_DATE  = 
ORIGINATOR     = 

OBJECT_NAME    = STARLINK-36646
OBJECT_ID      = 2026-033C
CENTER_NAME    = EARTH
REF_FRAME      = TEME
TIME_SYSTEM    = UTC
MEAN_ELEMENT_THEORY = SGP/SGP4

EPOCH          = 2026-02-27T18:44:28.998816
MEAN_MOTION    = 15.82403609
ECCENTRICITY   = .00024631
INCLINATION    = 42.9980
RA_OF_ASC_NODE = 332.2274
ARG_OF_PERICENTER = 225.6051
MEAN_ANOMALY   = 134.4619

EPHEMERIS_TYPE = 0
CLASSIFICATION_TYPE = U
NORAD_CAT_ID   = 67823
ELEMENT_SET_NO = 999
REV_AT_EPOCH   = 305
BSTAR          = .60009974E-2
MEAN_MOTION_DOT = .1454075E-1
MEAN_MOTION_DDOT = 0

CCSDS_OMM_VERS = 2.0
CREATION_DATE  = 
ORIGINATOR     = 

OBJECT_NAME    = STARLINK-36647
OBJECT_ID      = 2026-033D
CENTER_NAME    = EARTH
REF_FRAME      = TEME
TIME_SYSTEM    = UTC
MEAN_ELEMENT_THEORY = SGP/SGP4

EPOCH          = 2026-02-28T02:17:59.182368
MEAN_MOTION    = 15.82075326
ECCENTRICITY   = .0001547
INCLINATION    = 42.9981
RA_OF_ASC_NODE = 330.2888
ARG_OF_PERICENTER = 272.9999
MEAN_ANOMALY   = 87.0695

EPHEMERIS_TYPE = 0
CLASSIFICATION_TYPE = U
NORAD_CAT_ID   = 67824
ELEMENT_SET_NO = 999
REV_AT_EPOCH   = 310
BSTAR          = .10461E-2
MEAN_MOTION_DOT = .226209E-2
MEAN_MOTION_DDOT = 0

CCSDS_OMM_VERS = 2.0
CREATION_DATE  = 
ORIGINATOR     = 

OBJECT_NAME    = STARLINK-36648
OBJECT_ID      = 2026-033E
CENTER_NAME    = EARTH
REF_FRAME      = TEME
TIME_SYSTEM    = UTC
MEAN_ELEMENT_THEORY = SGP/SGP4

EPOCH          = 2026-02-28T02:16:53.584032
MEAN_MOTION    = 15.82102489
ECCENTRICITY   = .0003723
INCLINATION    = 42.9978
RA_OF_ASC_NODE = 330.2825
ARG_OF_PERICENTER = 253.6575
MEAN_ANOMALY   = 106.3887

EPHEMERIS_TYPE = 0
CLASSIFICATION_TYPE = U
NORAD_CAT_ID   = 67825
ELEMENT_SET_NO = 999
REV_AT_EPOCH   = 310
BSTAR          = .84112E-3
MEAN_MOTION_DOT = .181108E-2
MEAN_MOTION_DDOT = 0

CCSDS_OMM_VERS = 2.0
CREATION_DATE  = 
ORIGINATOR     = 

OBJECT_NAME    = STARLINK-35865
OBJECT_ID      = 2026-033F
CENTER_NAME    = EARTH
REF_FRAME      = TEME
TIME_SYSTEM    = UTC
MEAN_ELEMENT_THEORY = SGP/SGP4

EPOCH          = 2026-02-28T02:15:49.639392
MEAN_MOTION    = 15.82128458
ECCENTRICITY   = .0001953
INCLINATION    = 42.9979
RA_OF_ASC_NODE = 330.2769
ARG_OF_PERICENTER = 275.7459
MEAN_ANOMALY   = 84.3190

EPHEMERIS_TYPE = 0
CLASSIFICATION_TYPE = U
NORAD_CAT_ID   = 67826
ELEMENT_SET_NO = 999
REV_AT_EPOCH   = 310
BSTAR          = .16683E-2
MEAN_MOTION_DOT = .368036E-2
MEAN_MOTION_DDOT = 0

CCSDS_OMM_VERS = 2.0
CREATION_DATE  = 
ORIGINATOR     = 

OBJECT_NAME    = STARLINK-36289
OBJECT_ID      = 2026-033G
CENTER_NAME    = EARTH
REF_FRAME      = TEME
TIME_SYSTEM    = UTC
MEAN_ELEMENT_THEORY = SGP/SGP4

EPOCH          = 2026-02-28T02:14:44.721888
MEAN_MOTION    = 15.82094364
ECCENTRICITY   = .0002045
INCLINATION    = 42.9971
RA_OF_ASC_NODE = 330.2695
ARG_OF_PERICENTER = 264.3143
MEAN_ANOMALY   = 95.7495

EPHEMERIS_TYPE = 0
CLASSIFICATION_TYPE = U
NORAD_CAT_ID   = 67827
ELEMENT_SET_NO = 999
REV_AT_EPOCH   = 310
BSTAR          = .10346E-2
MEAN_MOTION_DOT = .223869E-2
MEAN_MOTION_DDOT = 0

